{
  "type": "FeatureCollection",
  "features": [
    {
      "type": "Feature",
      "properties": {
        "norad_id": 32275,
        "name": "COSMOS 2433 (720)",
        "group": "glo-ops",
        "lat": 63.61059390579813,
        "lon": 27.392915505929967,
        "alt_km": 19135.904579593844,
        "timestamp": "2025-12-25T20:42:38.948809+00:00",
        "meta_object_name": "COSMOS 2433 (720)",
        "meta_object_id": "2007-052A",
        "meta_epoch": "2025-12-24T08:26:16.805760",
        "meta_mean_motion": 2.13104186,
        "meta_eccentricity": 0.00051043,
        "meta_inclination": 65.677,
        "meta_ra_of_asc_node": 321.8159,
        "meta_arg_of_pericenter": 257.0223,
        "meta_mean_anomaly": 102.9214,
        "meta_ephemeris_type": 0,
        "meta_classification_type": "U",
        "meta_norad_cat_id": 32275,
        "meta_element_set_no": 999,
        "meta_rev_at_epoch": 14133,
        "meta_bstar": 0,
        "meta_mean_motion_dot": -3.3e-07,
        "meta_mean_motion_ddot": 0,
        "tle_line1": "1 32275U 07052A   25358.35158340 -.00000033  00000+0  00000+0 0  9990",
        "tle_line2": "2 32275  65.6770 321.8159 0005104 257.0223 102.9214  2.13104186141339"
      },
      "geometry": {
        "type": "Point",
        "coordinates": [
          27.392915505929967,
          63.61059390579813
        ]
      }
    },
    {
      "type": "Feature",
      "properties": {
        "norad_id": 32276,
        "name": "COSMOS 2432 (719)",
        "group": "glo-ops",
        "lat": 21.72735123256089,
        "lon": -27.755058428029372,
        "alt_km": 19117.140421006774,
        "timestamp": "2025-12-25T20:42:38.948833+00:00",
        "meta_object_name": "COSMOS 2432 (719)",
        "meta_object_id": "2007-052B",
        "meta_epoch": "2025-12-24T04:32:38.772960",
        "meta_mean_motion": 2.13103387,
        "meta_eccentricity": 0.00113791,
        "meta_inclination": 65.6931,
        "meta_ra_of_asc_node": 321.9458,
        "meta_arg_of_pericenter": 314.7871,
        "meta_mean_anomaly": 225.1187,
        "meta_ephemeris_type": 0,
        "meta_classification_type": "U",
        "meta_norad_cat_id": 32276,
        "meta_element_set_no": 999,
        "meta_rev_at_epoch": 14135,
        "meta_bstar": 0,
        "meta_mean_motion_dot": -3.3e-07,
        "meta_mean_motion_ddot": 0,
        "tle_line1": "1 32276U 07052B   25358.18933765 -.00000033  00000+0  00000+0 0  9994",
        "tle_line2": "2 32276  65.6931 321.9458 0011379 314.7871 225.1187  2.13103387141354"
      },
      "geometry": {
        "type": "Point",
        "coordinates": [
          -27.755058428029372,
          21.72735123256089
        ]
      }
    },
    {
      "type": "Feature",
      "properties": {
        "norad_id": 32393,
        "name": "COSMOS 2434 (721)",
        "group": "glo-ops",
        "lat": -26.87117368001532,
        "lon": -176.35521124770776,
        "alt_km": 19136.314904743605,
        "timestamp": "2025-12-25T20:42:38.948849+00:00",
        "meta_object_name": "COSMOS 2434 (721)",
        "meta_object_id": "2007-065A",
        "meta_epoch": "2025-12-25T04:50:38.690880",
        "meta_mean_motion": 2.13101426,
        "meta_eccentricity": 0.00048155,
        "meta_inclination": 64.316,
        "meta_ra_of_asc_node": 197.7825,
        "meta_arg_of_pericenter": 72.3335,
        "meta_mean_anomaly": 110.4789,
        "meta_ephemeris_type": 0,
        "meta_classification_type": "U",
        "meta_norad_cat_id": 32393,
        "meta_element_set_no": 999,
        "meta_rev_at_epoch": 14006,
        "meta_bstar": 0,
        "meta_mean_motion_dot": 1.04e-06,
        "meta_mean_motion_ddot": 0,
        "tle_line1": "1 32393U 07065A   25359.20183670  .00000104  00000+0  00000+0 0  9992",
        "tle_line2": "2 32393  64.3160 197.7825 0004815  72.3335 110.4789  2.13101426140063"
      },
      "geometry": {
        "type": "Point",
        "coordinates": [
          -176.35521124770776,
          -26.87117368001532
        ]
      }
    },
    {
      "type": "Feature",
      "properties": {
        "norad_id": 32395,
        "name": "COSMOS 2436 (723)",
        "group": "glo-ops",
        "lat": 61.31419834394424,
        "lon": -43.752032553681616,
        "alt_km": 19125.535525211544,
        "timestamp": "2025-12-25T20:42:38.948862+00:00",
        "meta_object_name": "COSMOS 2436 (723)",
        "meta_object_id": "2007-065C",
        "meta_epoch": "2025-12-25T06:17:47.253408",
        "meta_mean_motion": 2.1310019,
        "meta_eccentricity": 0.00178263,
        "meta_inclination": 64.3246,
        "meta_ra_of_asc_node": 197.8509,
        "meta_arg_of_pericenter": 10.3034,
        "meta_mean_anomaly": 351.9576,
        "meta_ephemeris_type": 0,
        "meta_classification_type": "U",
        "meta_norad_cat_id": 32395,
        "meta_element_set_no": 999,
        "meta_rev_at_epoch": 14002,
        "meta_bstar": 0,
        "meta_mean_motion_dot": 1.04e-06,
        "meta_mean_motion_ddot": 0,
        "tle_line1": "1 32395U 07065C   25359.26235247  .00000104  00000+0  00000+0 0  9998",
        "tle_line2": "2 32395  64.3246 197.8509 0017826  10.3034 351.9576  2.13100190140023"
      },
      "geometry": {
        "type": "Point",
        "coordinates": [
          -43.752032553681616,
          61.31419834394424
        ]
      }
    },
    {
      "type": "Feature",
      "properties": {
        "norad_id": 36111,
        "name": "COSMOS 2456 (730)",
        "group": "glo-ops",
        "lat": 46.22173215626021,
        "lon": -132.32859259618758,
        "alt_km": 19133.537505813943,
        "timestamp": "2025-12-25T20:42:38.948874+00:00",
        "meta_object_name": "COSMOS 2456 (730)",
        "meta_object_id": "2009-070A",
        "meta_epoch": "2025-12-24T09:16:29.146080",
        "meta_mean_motion": 2.13103739,
        "meta_eccentricity": 0.00036447,
        "meta_inclination": 64.9059,
        "meta_ra_of_asc_node": 76.94,
        "meta_arg_of_pericenter": 294.9884,
        "meta_mean_anomaly": 139.4332,
        "meta_ephemeris_type": 0,
        "meta_classification_type": "U",
        "meta_norad_cat_id": 36111,
        "meta_element_set_no": 999,
        "meta_rev_at_epoch": 12470,
        "meta_bstar": 0,
        "meta_mean_motion_dot": -1e-08,
        "meta_mean_motion_ddot": 0,
        "tle_line1": "1 36111U 09070A   25358.38644845 -.00000001  00000+0  00000+0 0  9993",
        "tle_line2": "2 36111  64.9059  76.9400 0003644 294.9884 139.4332  2.13103739124702"
      },
      "geometry": {
        "type": "Point",
        "coordinates": [
          -132.32859259618758,
          46.22173215626021
        ]
      }
    },
    {
      "type": "Feature",
      "properties": {
        "norad_id": 36112,
        "name": "COSMOS 2457 (733)",
        "group": "glo-ops",
        "lat": -61.58706768327779,
        "lon": -43.30954066839988,
        "alt_km": 19137.107675042465,
        "timestamp": "2025-12-25T20:42:38.948886+00:00",
        "meta_object_name": "COSMOS 2457 (733)",
        "meta_object_id": "2009-070B",
        "meta_epoch": "2025-12-23T15:49:23.328192",
        "meta_mean_motion": 2.13101141,
        "meta_eccentricity": 0.00045057,
        "meta_inclination": 64.8913,
        "meta_ra_of_asc_node": 76.812,
        "meta_arg_of_pericenter": 162.7292,
        "meta_mean_anomaly": 202.8862,
        "meta_ephemeris_type": 0,
        "meta_classification_type": "U",
        "meta_norad_cat_id": 36112,
        "meta_element_set_no": 999,
        "meta_rev_at_epoch": 12469,
        "meta_bstar": 0,
        "meta_mean_motion_dot": -1e-08,
        "meta_mean_motion_ddot": 0,
        "tle_line1": "1 36112U 09070B   25357.65929778 -.00000001  00000+0  00000+0 0  9994",
        "tle_line2": "2 36112  64.8913  76.8120 0004505 162.7292 202.8862  2.13101141124697"
      },
      "geometry": {
        "type": "Point",
        "coordinates": [
          -43.30954066839988,
          -61.58706768327779
        ]
      }
    },
    {
      "type": "Feature",
      "properties": {
        "norad_id": 36402,
        "name": "COSMOS 2460 (732)",
        "group": "glo-ops",
        "lat": -61.96202925729547,
        "lon": -160.94873514676237,
        "alt_km": 19130.461829734217,
        "timestamp": "2025-12-25T20:42:38.948898+00:00",
        "meta_object_name": "COSMOS 2460 (732)",
        "meta_object_id": "2010-007C",
        "meta_epoch": "2025-12-25T05:13:15.714336",
        "meta_mean_motion": 2.13106358,
        "meta_eccentricity": 0.00024876,
        "meta_inclination": 65.5229,
        "meta_ra_of_asc_node": 320.3522,
        "meta_arg_of_pericenter": 284.3328,
        "meta_mean_anomaly": 196.3839,
        "meta_ephemeris_type": 0,
        "meta_classification_type": "U",
        "meta_norad_cat_id": 36402,
        "meta_element_set_no": 999,
        "meta_rev_at_epoch": 12302,
        "meta_bstar": 0,
        "meta_mean_motion_dot": -3.2e-07,
        "meta_mean_motion_ddot": 0,
        "tle_line1": "1 36402U 10007C   25359.21754299 -.00000032  00000+0  00000+0 0  9990",
        "tle_line2": "2 36402  65.5229 320.3522 0002487 284.3328 196.3839  2.13106358123020"
      },
      "geometry": {
        "type": "Point",
        "coordinates": [
          -160.94873514676237,
          -61.96202925729547
        ]
      }
    }
  ]
}